ONEWEB-0520             
1 54138U 22138AB  24278.87267391 -.00000230  00000+0 -60757-3 0  9997
2 54138  87.9121  68.3275 0002048 103.2615 256.8746 13.19723487 95001
ONEWEB-0521             
1 54139U 22138AC  24278.90582781  .00000071  00000+0  14475-3 0  9992
2 54139  87.9118  68.3119 0001428  91.4363 268.6934 13.19724409 94952
ONEWEB-0522             
1 54140U 22138AD  24278.88530580  .00000045  00000+0  79948-4 0  9999
2 54140  87.9120  68.3180 0001749  94.9558 265.1775 13.19727163 94994
ONEWEB-0523             
1 54141U 22138AE  24278.88540161  .00000118  00000+0  25909-3 0  9994
2 54141  87.9273  37.8233 0001547  69.4452 290.6847 13.20771030 97428
ONEWEB-0524             
1 54142U 22138AF  24278.79859658  .00000055  00000+0  10423-3 0  9994
2 54142  87.9273  37.8436 0002505  79.4794 280.6622 13.20773365 97411
ONEWEB-0525             
1 54143U 22138AG  24278.90426463  .00000059  00000+0  11591-3 0  9993
2 54143  87.9123  68.3260 0001866 104.5627 255.5713 13.19725866 95011
ONEWEB-0526             
1 54144U 22138AH  24278.86161096  .00000004  00000+0 -23349-4 0  9993
2 54144  87.9121  68.3276 0001789  96.3426 263.7910 13.19725203 94986
ONEWEB-0529             
1 54145U 22138AJ  24278.86477219  .00000046  00000+0  83112-4 0  9990
2 54145  87.9129  68.3503 0001900 102.0597 258.0748 13.19725115 95009
